STARLINK-31817          
1 59731U 24090B   26068.30078418  .00000038  00000+0  10898-4 0  9993
2 59731  43.0005 185.4383 0000381 165.4918 194.5945 15.27580929103387
FLOCK 4G-27             
1 62641U 25009AJ  26068.75406453  .00012587  00000+0  47455-3 0  9991
2 62641  97.3976 150.8631 0000756 322.4974  37.6212 15.27199247 63710
